ORBCOMM FM115           
1 41186U 15081H   25031.53617613  .00002098  00000+0  44855-3 0  9995
2 41186  46.9993 329.2697 0000237 183.7402 176.3484 14.62027029487776
ORBCOMM FM108           
1 41187U 15081J   25031.73081268  .00002228  00000+0  51991-3 0  9993
2 41187  47.0048  31.2142 0002550  18.2056 341.8920 14.57716261486963
ORBCOMM FM117           
1 41188U 15081K   25031.42305530  .00002311  00000+0  53769-3 0  9999
2 41188  47.0010  31.4762 0002697  28.9777 331.1257 14.57723212486883
ORBCOMM FM116           
1 41189U 15081L   25031.68755482  .00002542  00000+0  58762-3 0  9997
2 41189  47.0010 120.0810 0001518 188.5459 171.5401 14.57728374485806
